COSMOS 2433 (720)       
1 32275C 07052A   23129.99979167  .00000000  00000-0  00000-0 0  1292
2 32275  66.0464 353.8302 0000450 302.3517 274.0175  2.13103895    10
COSMOS 2432 (719)       
1 32276C 07052B   23129.99979167  .00000000  00000-0  00000-0 0  1293
2 32276  66.0606 353.9368 0010083 341.3071 182.4738  2.13103172    18
COSMOS 2434 (721)       
1 32393C 07065A   23129.99979167  .00000000  00000-0  00000-0 0  1297
2 32393  64.3424 230.2969 0002436  90.1190  16.9935  2.13102969    18
COSMOS 2436 (723)       
1 32395C 07065C   23129.99979167  .00000000  00000-0  00000-0 0  1299
2 32395  64.3511 230.3573 0015559   0.3555 242.3659  2.13102848    11
COSMOS 2456 (730)       
1 36111C 09070A   23129.99979167 -.00000000  00000-0  00000-0 0  1298
2 36111  64.4520 109.8370 0006225 303.9019 324.1055  2.13099029    19
COSMOS 2457 (733)       
1 36112C 09070B   23129.99979167 -.00000000  00000-0  00000-0 0  1299
2 36112  64.4358 109.7051 0003690 200.2002 197.6786  2.13100974    14
COSMOS 2460 (732)       
1 36402C 10007C   23129.99979167  .00000000  00000-0  00000-0 0  1292
2 36402  65.9115 352.5652 0002745  52.4508 332.4860  2.13105975    14
COSMOS 2476 (744)       
1 37867C 11064A   23129.99979167 -.00000000  00000-0  00000-0 0  1293
2 37867  64.7344 111.3194 0023768 241.6612 294.6764  2.13101551    17
COSMOS 2477 (745)       
1 37868C 11064B   23129.99979167 -.00000000  00000-0  00000-0 0  1294
2 37868  64.7418 111.3877 0021113 242.9488 111.3167  2.13101270    15
COSMOS 2475 (743)       
1 37869C 11064C   23129.99979167 -.00000000  00000-0  00000-0 0  1295
2 37869  64.7490 111.3989 0025999 257.4746  55.1107  2.13101691    10
COSMOS 2485 (747)       
1 39155C 13019A   23129.99979167 -.00000000  00000-0  00000-0 0  1297
2 39155  64.8957 111.8180 0024017 237.7096 342.9868  2.13101729    19
COSMOS 2492 (754)       
1 39620C 14012A   23129.99979167  .00000000  00000-0  00000-0 0  1297
2 39620  65.7960 352.2005 0012804 333.5845 281.3977  2.13102912    17
COSMOS 2500 (755)       
1 40001C 14032A   23129.99979167  .00000000  00000-0  00000-0 0  1294
2 40001  65.7347 352.0370 0004392 185.3134 287.9007  2.13105758    18
COSMOS 2501 (702K)      
1 40315C 14075A   23129.99979167  .00000000  00000-0  00000-0 0  1299
2 40315  63.6466 229.7540 0018898 207.8366  74.4809  2.13101379    11
COSMOS 2514 (751)       
1 41330C 16008A   23129.99979167  .00000000  00000-0  00000-0 0  1295
2 41330  65.5327 351.6476 0007916 204.5628  92.5773  2.13102359    13
COSMOS 2522 (752)       
1 42939C 17055A   23129.99979167  .00000000  00000-0  00000-0 0  1294
2 42939  64.1070 230.6127 0007821 237.4881 180.4889  2.13101737    13
COSMOS 2527 (756)       
1 43508C 18053A   23129.99979167 -.00000000  00000-0  00000-0 0  1297
2 43508  65.0575 111.8862 0009789 244.2770 205.6195  2.13102161    12
COSMOS 2529 (757)       
1 43687C 18086A   23129.99979167  .00000000  00000-0  00000-0 0  1290
2 43687  64.3222 231.0167 0009298 262.2593 111.2028  2.13101939    11
COSMOS 2534 (758)       
1 44299C 19030A   23129.99979167  .00000000  00000-0  00000-0 0  1290
2 44299  64.3947 230.9322 0011646 284.3172 223.4638  2.13101988    11
COSMOS 2544 (759)       
1 44850C 19088A   23129.99979167 -.00000000  00000-0  00000-0 0  1297
2 44850  65.0433 111.7314 0015050 263.0411 230.0482  2.13101964    17
COSMOS 2545 (760)       
1 45358C 20018A   23129.99979167  .00000000  00000-0  00000-0 0  1295
2 45358  64.8726 351.9884 0006615 251.7784  90.4190  2.13102265    16
COSMOS 2547 (705K)      
1 46805C 20075A   23129.99979167  .00000000  00000-0  00000-0 0  1296
2 46805  64.6212 230.4533 0007143 240.5010 316.0612  2.13103034    10
COSMOS 2557 (706K)      
1 52984C 20075A   23129.99979167  .00000000  00000-0  00000-0 0  1291
2 52984  64.7848 354.1603 0010962 289.2612 143.3764  2.13101616    17
COSMOS 2559 (707K)      
1 54031C 22130A   23129.99979167  .00000000  00000-0  00000-0 0  1290
2 54031  64.7558 354.2921 0004411 220.0137 257.5492  2.13100861    18
COSMOS 2564 (761)       
1 54377C 22161A   23129.99979167  .00000000  00000-0  00000-0 0  1297
2 54377  64.7618 230.4851 0009195 218.7269 109.9047  2.13101967    13
